OBJECT_NAME,OBJECT_ID,EPOCH,MEAN_MOTION,ECCENTRICITY,INCLINATION,RA_OF_ASC_NODE,ARG_OF_PERICENTER,MEAN_ANOMALY,EPHEMERIS_TYPE,CLASSIFICATION_TYPE,NORAD_CAT_ID,ELEMENT_SET_NO,REV_AT_EPOCH,BSTAR,MEAN_MOTION_DOT,MEAN_MOTION_DDOT
IRIDIUM 154,2018-061F,2026-06-17T17:16:46.328160,14.34216577,.00021257,86.3961,56.5840,87.3993,272.7446,0,U,43574,999,41348,.30607338E-4,.105E-5,0
IRIDIUM 163,2018-061G,2026-06-17T18:29:50.277120,14.34216408,.0002237,86.3959,56.4782,83.5295,276.6155,0,U,43575,999,41346,.676581E-5,.39E-6,0
IRIDIUM 156,2018-061H,2026-06-17T17:53:18.578688,14.34216794,.00021084,86.3963,56.4961,83.1935,276.9500,0,U,43576,999,41345,.67118008E-4,.208E-5,0
IRIDIUM 164,2018-061J,2026-06-17T17:25:54.422976,14.34217193,.00021582,86.3960,56.5443,88.8784,271.2659,0,U,43577,999,41349,.45581866E-4,.147E-5,0
IRIDIUM 159,2018-061K,2026-06-17T18:20:42.532224,14.34217553,.00022711,86.3960,56.4653,83.8189,276.3266,0,U,43578,999,41346,.7341747E-5,.4E-6,0
IRIDIUM 180,2019-002A,2026-06-17T13:18:34.879968,14.34217198,.0002245,86.3970,353.4438,89.0950,271.0503,0,U,43922,999,38904,.37455E-4,.125E-5,0
IRIDIUM 176,2019-002B,2026-06-17T11:58:13.690848,14.72267339,.0002292,86.6090,353.4107,92.8388,267.3092,0,U,43923,999,39929,.91298911E-4,.601E-5,0
IRIDIUM 168,2019-002C,2026-06-17T13:09:26.715168,14.34218749,.000218,86.3974,353.5239,89.3052,270.8394,0,U,43924,999,38902,.20551E-4,.77E-6,0
IRIDIUM 173,2019-002D,2026-06-17T22:53:58.917696,14.34217074,.00021795,86.3969,353.2430,87.3774,272.7671,0,U,43925,999,38906,.58626702E-4,.184E-5,0
IRIDIUM 169,2019-002E,2026-06-17T16:04:11.565984,14.38609195,.0001832,86.4224,24.9917,73.0334,287.1065,0,U,43926,999,39029,.64742823E-4,.218E-5,0
IRIDIUM 172,2019-002F,2026-06-17T22:44:50.717472,14.34218839,.00022551,86.3970,353.2536,88.7804,271.3650,0,U,43927,999,38907,.4807855E-4,.154E-5,0
IRIDIUM 175,2019-002G,2026-06-17T19:55:43.347648,14.43613013,.00025827,86.4513,290.2520,176.9891,183.1326,0,U,43928,999,39907,.72506711E-4,.266E-5,0
IRIDIUM 171,2019-002H,2026-06-17T22:17:26.894400,14.34217408,.00019347,86.3976,353.5678,91.1863,268.9554,0,U,43929,999,38906,-.19943943E-4,-.36E-6,0
IRIDIUM 170,2019-002J,2026-06-17T12:07:07.671360,14.72267873,.00023612,86.6091,353.4105,89.3107,270.8381,0,U,43930,999,39930,.91933433E-4,.605E-5,0
IRIDIUM 167,2019-002K,2026-06-17T22:08:18.860064,14.34217594,.00017718,86.3967,353.2865,92.5455,267.5943,0,U,43931,999,38906,-.1934986E-5,.14E-6,0
IRIDIUM 181,2023-068S,2026-06-17T17:31:47.932896,14.43312711,.00023565,86.4498,56.5635,88.4207,271.7264,0,U,56726,999,16251,.72320697E-4,.264E-5,0
IRIDIUM 177,2023-068T,2026-06-17T20:43:17.185440,14.80225369,.00023543,86.1963,328.4701,88.6355,271.5136,0,U,56727,999,16646,.63228171E-4,.507E-5,0
IRIDIUM 174,2023-068U,2026-06-17T11:49:21.856512,14.72264223,.00024594,86.6098,353.5631,84.1387,276.0110,0,U,56728,999,16606,.94769863E-4,.622E-5,0
IRIDIUM 178,2023-068V,2026-06-17T17:12:56.384064,14.80234512,.00026297,86.6537,25.1386,85.7769,274.3753,0,U,56729,999,16644,.95725223E-4,.754E-5,0
IRIDIUM 179,2023-068W,2026-06-17T15:27:49.208256,14.80231502,.00024665,86.6776,34.1509,88.8639,271.2865,0,U,56730,999,16643,.65372353E-4,.523E-5,0
