IRIDIUM 154             
1 43574U 18061F   26168.71998065  .00000105  00000+0  30607-4 0  9992
2 43574  86.3961  56.5840 0002125  87.3993 272.7446 14.34216577413487
IRIDIUM 163             
1 43575U 18061G   26168.77072080  .00000039  00000+0  67658-5 0  9992
2 43575  86.3959  56.4782 0002237  83.5295 276.6155 14.34216408413467
IRIDIUM 156             
1 43576U 18061H   26168.74535392  .00000208  00000+0  67118-4 0  9998
2 43576  86.3963  56.4961 0002108  83.1935 276.9500 14.34216794413450
IRIDIUM 164             
1 43577U 18061J   26168.72632434  .00000147  00000+0  45582-4 0  9995
2 43577  86.3960  56.5443 0002158  88.8784 271.2659 14.34217193413494
IRIDIUM 159             
1 43578U 18061K   26168.76438116  .00000040  00000+0  73417-5 0  9992
2 43578  86.3960  56.4653 0002271  83.8189 276.3266 14.34217553413464
IRIDIUM 180             
1 43922U 19002A   26168.55457037  .00000125  00000+0  37455-4 0  9996
2 43922  86.3970 353.4438 0002245  89.0950 271.0503 14.34217198389041
IRIDIUM 176             
1 43923U 19002B   26168.49876957  .00000601  00000+0  91299-4 0  9991
2 43923  86.6090 353.4107 0002292  92.8388 267.3092 14.72267339399293
IRIDIUM 168             
1 43924U 19002C   26168.54822587  .00000077  00000+0  20551-4 0  9998
2 43924  86.3974 353.5239 0002180  89.3052 270.8394 14.34218749389027
IRIDIUM 173             
1 43925U 19002D   26168.95415414  .00000184  00000+0  58627-4 0  9995
2 43925  86.3969 353.2430 0002179  87.3774 272.7671 14.34217074389062
IRIDIUM 169             
1 43926U 19002E   26168.66957831  .00000218  00000+0  64743-4 0  9992
2 43926  86.4224  24.9917 0001832  73.0334 287.1065 14.38609195390296
IRIDIUM 172             
1 43927U 19002F   26168.94780923  .00000154  00000+0  48079-4 0  9993
2 43927  86.3970 353.2536 0002255  88.7804 271.3650 14.34218839389070
IRIDIUM 175             
1 43928U 19002G   26168.83036282  .00000266  00000+0  72507-4 0  9991
2 43928  86.4513 290.2520 0002582 176.9891 183.1326 14.43613013399071
IRIDIUM 171             
1 43929U 19002H   26168.92878350 -.00000036  00000+0 -19944-4 0  9995
2 43929  86.3976 353.5678 0001934  91.1863 268.9554 14.34217408389069
IRIDIUM 170             
1 43930U 19002J   26168.50494990  .00000605  00000+0  91933-4 0  9993
2 43930  86.6091 353.4105 0002361  89.3107 270.8381 14.72267873399302
IRIDIUM 167             
1 43931U 19002K   26168.92244051  .00000014  00000+0 -19350-5 0  9990
2 43931  86.3967 353.2865 0001771  92.5455 267.5943 14.34217594389061
IRIDIUM 181             
1 56726U 23068S   26168.73041589  .00000264  00000+0  72321-4 0  9995
2 56726  86.4498  56.5635 0002356  88.4207 271.7264 14.43312711162513
IRIDIUM 177             
1 56727U 23068T   26168.86339335  .00000507  00000+0  63228-4 0  9995
2 56727  86.1963 328.4701 0002354  88.6355 271.5136 14.80225369166464
IRIDIUM 174             
1 56728U 23068U   26168.49261408  .00000622  00000+0  94770-4 0  9994
2 56728  86.6098 353.5631 0002459  84.1387 276.0110 14.72264223166063
IRIDIUM 178             
1 56729U 23068V   26168.71731926  .00000754  00000+0  95725-4 0  9994
2 56729  86.6537  25.1386 0002629  85.7769 274.3753 14.80234512166444
IRIDIUM 179             
1 56730U 23068W   26168.64431954  .00000523  00000+0  65372-4 0  9995
2 56730  86.6776  34.1509 0002466  88.8639 271.2865 14.80231502166432
